start=new Date('2022-02-28T00:00:00.000Z').valueOf();
sats=[{"MEAN_MOTION":"15.54245819","OBJECT_NAME":"STARLINK-3306","RCS_SIZE":"LARGE","SITE":"AFWTR","EPHEMERIS_TYPE":"0","TIME_SYSTEM":"UTC","COUNTRY_CODE":"US","CLASSIFICATION_TYPE":"U","PERIOD":"92.649","MEAN_ANOMALY":"118.8487","TLE_LINE1":"1 50163U 21125H   22058.91667824 -.00300768  00000-0 -46969-2 0  9998","ECCENTRICITY":"0.00018670","CENTER_NAME":"EARTH","REV_AT_EPOCH":"369","SEMIMAJOR_AXIS":"6782.483","GP_ID":"197287754","ELEMENT_SET_NO":"999","MEAN_MOTION_DOT":"-0.00300768","LAUNCH_DATE":"2021-12-18","ARG_OF_PERICENTER":"35.1379","INCLINATION":"53.2175","DECAY_DATE":null,"FILE":"3331200","BSTAR":"-0.00469690000000","OBJECT_ID":"2021-125H","EPOCH":"2022-02-27T22:00:00.999936","APOAPSIS":"405.614","MEAN_MOTION_DDOT":"0.0000000000000","MEAN_ELEMENT_THEORY":"SGP4","NORAD_CAT_ID":"50163","TLE_LINE2":"2 50163  53.2175  14.3105 0001867  35.1379 118.8487 15.54245819  3693","REF_FRAME":"TEME","RA_OF_ASC_NODE":"14.3105","OBJECT_TYPE":"PAYLOAD","PERIAPSIS":"403.082"},{"TIME_SYSTEM":"UTC","COUNTRY_CODE":"US","CLASSIFICATION_TYPE":"U","RCS_SIZE":"LARGE","OBJECT_NAME":"STARLINK-3307","MEAN_MOTION":"15.73281259","SITE":"AFWTR","EPHEMERIS_TYPE":"0","GP_ID":"197288005","SEMIMAJOR_AXIS":"6727.664","REV_AT_EPOCH":"370","ELEMENT_SET_NO":"999","PERIOD":"91.528","MEAN_ANOMALY":"73.5140","CENTER_NAME":"EARTH","ECCENTRICITY":"0.00031770","TLE_LINE1":"1 50164U 21125J   22058.91667824 -.00054715  00000-0 -38647-3 0  9992","BSTAR":"-0.00038647000000","EPOCH":"2022-02-27T22:00:00.999936","OBJECT_ID":"2021-125J","APOAPSIS":"351.666","MEAN_MOTION_DDOT":"0.0000000000000","LAUNCH_DATE":"2021-12-18","ARG_OF_PERICENTER":"10.7361","MEAN_MOTION_DOT":"-0.00054715","DECAY_DATE":null,"INCLINATION":"53.2162","FILE":"3331200","OBJECT_TYPE":"PAYLOAD","PERIAPSIS":"347.391","MEAN_ELEMENT_THEORY":"SGP4","NORAD_CAT_ID":"50164","TLE_LINE2":"2 50164  53.2162  12.3206 0003177  10.7361  73.5140 15.73281259  3700","REF_FRAME":"TEME","RA_OF_ASC_NODE":"12.3206"},{"LAUNCH_DATE":"2021-12-18","ARG_OF_PERICENTER":"35.4071","MEAN_MOTION_DOT":"-0.00662478","FILE":"3331200","DECAY_DATE":null,"INCLINATION":"53.2174","OBJECT_ID":"2021-125K","EPOCH":"2022-02-27T22:00:00.999936","BSTAR":"-0.03964800000000","MEAN_MOTION_DDOT":"0.0000000000000","APOAPSIS":"528.531","NORAD_CAT_ID":"50165","MEAN_ELEMENT_THEORY":"SGP4","REF_FRAME":"TEME","RA_OF_ASC_NODE":"21.7084","TLE_LINE2":"2 50165  53.2174  21.7084 0001952  35.4071  53.9811 15.12959380  3632","PERIAPSIS":"525.835","OBJECT_TYPE":"PAYLOAD","SITE":"AFWTR","RCS_SIZE":"LARGE","OBJECT_NAME":"STARLINK-3298","MEAN_MOTION":"15.12959380","EPHEMERIS_TYPE":"0","TIME_SYSTEM":"UTC","CLASSIFICATION_TYPE":"U","COUNTRY_CODE":"US","PERIOD":"95.178","CENTER_NAME":"EARTH","ECCENTRICITY":"0.00019520","TLE_LINE1":"1 50165U 21125K   22058.91667824 -.00662478  00000-0 -39648-1 0  9994","MEAN_ANOMALY":"53.9811","SEMIMAJOR_AXIS":"6905.318","GP_ID":"197288756","REV_AT_EPOCH":"363","ELEMENT_SET_NO":"999"},{"TIME_SYSTEM":"UTC","CLASSIFICATION_TYPE":"U","COUNTRY_CODE":"US","SITE":"AFWTR","OBJECT_NAME":"STARLINK-3305","MEAN_MOTION":"15.42589171","RCS_SIZE":"LARGE","EPHEMERIS_TYPE":"0","REV_AT_EPOCH":"368","GP_ID":"197287004","SEMIMAJOR_AXIS":"6816.608","ELEMENT_SET_NO":"999","PERIOD":"93.350","TLE_LINE1":"1 50166U 21125L   22058.91667824 -.00661890  00000-0 -16110-1 0  9991","ECCENTRICITY":"0.00013760","CENTER_NAME":"EARTH","MEAN_ANOMALY":"264.8759","EPOCH":"2022-02-27T22:00:00.999936","OBJECT_ID":"2021-125L","BSTAR":"-0.01611000000000","MEAN_MOTION_DDOT":"0.0000000000000","APOAPSIS":"439.411","MEAN_MOTION_DOT":"-0.00661890","ARG_OF_PERICENTER":"54.8463","LAUNCH_DATE":"2021-12-18","FILE":"3331200","INCLINATION":"53.2177","DECAY_DATE":null,"PERIAPSIS":"437.535","OBJECT_TYPE":"PAYLOAD","NORAD_CAT_ID":"50166","MEAN_ELEMENT_THEORY":"SGP4","RA_OF_ASC_NODE":"14.6266","REF_FRAME":"TEME","TLE_LINE2":"2 50166  53.2177  14.6266 0001376  54.8463 264.8759 15.42589171  3688"},{"NORAD_CAT_ID":"50167","MEAN_ELEMENT_THEORY":"SGP4","REF_FRAME":"TEME","RA_OF_ASC_NODE":"21.7083","TLE_LINE2":"2 50167  53.2175  21.7083 0001921  38.3406  88.5386 15.13190170  3641","PERIAPSIS":"525.154","OBJECT_TYPE":"PAYLOAD","ARG_OF_PERICENTER":"38.3406","LAUNCH_DATE":"2021-12-18","MEAN_MOTION_DOT":"-0.00663275","FILE":"3331200","DECAY_DATE":null,"INCLINATION":"53.2175","OBJECT_ID":"2021-125M","EPOCH":"2022-02-27T22:00:00.999936","BSTAR":"-0.03944200000000","MEAN_MOTION_DDOT":"0.0000000000000","APOAPSIS":"527.807","PERIOD":"95.163","CENTER_NAME":"EARTH","ECCENTRICITY":"0.00019210","TLE_LINE1":"1 50167U 21125M   22058.91667824 -.00663275  00000-0 -39442-1 0  9994","MEAN_ANOMALY":"88.5386","GP_ID":"197287254","SEMIMAJOR_AXIS":"6904.616","REV_AT_EPOCH":"364","ELEMENT_SET_NO":"999","SITE":"AFWTR","RCS_SIZE":"LARGE","OBJECT_NAME":"STARLINK-3271","MEAN_MOTION":"15.13190170","EPHEMERIS_TYPE":"0","TIME_SYSTEM":"UTC","CLASSIFICATION_TYPE":"U","COUNTRY_CODE":"US"},{"MEAN_ANOMALY":"280.9926","TLE_LINE1":"1 50168U 21125N   22058.91667824 -.00662152  00000-0 -16054-1 0  9992","ECCENTRICITY":"0.00014500","CENTER_NAME":"EARTH","PERIOD":"93.343","ELEMENT_SET_NO":"999","REV_AT_EPOCH":"368","SEMIMAJOR_AXIS":"6816.269","GP_ID":"197288506","EPHEMERIS_TYPE":"0","OBJECT_NAME":"STARLINK-3296","MEAN_MOTION":"15.42704397","RCS_SIZE":"LARGE","SITE":"AFWTR","COUNTRY_CODE":"US","CLASSIFICATION_TYPE":"U","TIME_SYSTEM":"UTC","TLE_LINE2":"2 50168  53.2177  14.6260 0001450  48.7174 280.9926 15.42704397  3682","REF_FRAME":"TEME","RA_OF_ASC_NODE":"14.6260","MEAN_ELEMENT_THEORY":"SGP4","NORAD_CAT_ID":"50168","OBJECT_TYPE":"PAYLOAD","PERIAPSIS":"437.145","INCLINATION":"53.2177","DECAY_DATE":null,"FILE":"3331200","MEAN_MOTION_DOT":"-0.00662152","ARG_OF_PERICENTER":"48.7174","LAUNCH_DATE":"2021-12-18","APOAPSIS":"439.122","MEAN_MOTION_DDOT":"0.0000000000000","BSTAR":"-0.01605400000000","OBJECT_ID":"2021-125N","EPOCH":"2022-02-27T22:00:00.999936"},{"OBJECT_TYPE":"PAYLOAD","PERIAPSIS":"434.424","TLE_LINE2":"2 50169  53.2176  14.6183 0001468  43.6337   4.7530 15.43624823  3689","REF_FRAME":"TEME","RA_OF_ASC_NODE":"14.6183","MEAN_ELEMENT_THEORY":"SGP4","NORAD_CAT_ID":"50169","APOAPSIS":"436.424","MEAN_MOTION_DDOT":"0.0000000000000","BSTAR":"-0.01554500000000","EPOCH":"2022-02-27T22:00:00.999936","OBJECT_ID":"2021-125P","INCLINATION":"53.2176","DECAY_DATE":null,"FILE":"3331200","MEAN_MOTION_DOT":"-0.00661524","LAUNCH_DATE":"2021-12-18","ARG_OF_PERICENTER":"43.6337","ELEMENT_SET_NO":"999","REV_AT_EPOCH":"368","GP_ID":"197288256","SEMIMAJOR_AXIS":"6813.559","MEAN_ANOMALY":"4.7530","TLE_LINE1":"1 50169U 21125P   22058.91667824 -.00661524  00000-0 -15545-1 0  9999","CENTER_NAME":"EARTH","ECCENTRICITY":"0.00014680","PERIOD":"93.287","COUNTRY_CODE":"US","CLASSIFICATION_TYPE":"U","TIME_SYSTEM":"UTC","EPHEMERIS_TYPE":"0","OBJECT_NAME":"STARLINK-3301","MEAN_MOTION":"15.43624823","RCS_SIZE":"LARGE","SITE":"AFWTR"},{"DECAY_DATE":null,"INCLINATION":"53.2177","FILE":"3331200","LAUNCH_DATE":"2021-12-18","ARG_OF_PERICENTER":"45.3784","MEAN_MOTION_DOT":"-0.00662094","APOAPSIS":"438.451","MEAN_MOTION_DDOT":"0.0000000000000","BSTAR":"-0.01592800000000","EPOCH":"2022-02-27T22:00:00.999936","OBJECT_ID":"2021-125Q","TLE_LINE2":"2 50170  53.2177  14.6245 0001461  45.3784 304.2050 15.42934578  3684","RA_OF_ASC_NODE":"14.6245","REF_FRAME":"TEME","MEAN_ELEMENT_THEORY":"SGP4","NORAD_CAT_ID":"50170","OBJECT_TYPE":"PAYLOAD","PERIAPSIS":"436.460","EPHEMERIS_TYPE":"0","RCS_SIZE":"LARGE","OBJECT_NAME":"STARLINK-3245","MEAN_MOTION":"15.42934578","SITE":"AFWTR","COUNTRY_CODE":"US","CLASSIFICATION_TYPE":"U","TIME_SYSTEM":"UTC","MEAN_ANOMALY":"304.2050","CENTER_NAME":"EARTH","ECCENTRICITY":"0.00014610","TLE_LINE1":"1 50170U 21125Q   22058.91667824 -.00662094  00000-0 -15928-1 0  9999","PERIOD":"93.329","ELEMENT_SET_NO":"999","GP_ID":"197287505","SEMIMAJOR_AXIS":"6815.591","REV_AT_EPOCH":"368"},{"TIME_SYSTEM":"UTC","COUNTRY_CODE":"US","CLASSIFICATION_TYPE":"U","MEAN_MOTION":"15.42474048","OBJECT_NAME":"STARLINK-3286","RCS_SIZE":"LARGE","SITE":"AFWTR","EPHEMERIS_TYPE":"0","REV_AT_EPOCH":"368","SEMIMAJOR_AXIS":"6816.947","GP_ID":"197287755","ELEMENT_SET_NO":"999","PERIOD":"93.357","MEAN_ANOMALY":"257.4052","TLE_LINE1":"1 50171U 21125R   22058.91667824 -.00661948  00000-0 -16174-1 0  9991","ECCENTRICITY":"0.00014450","CENTER_NAME":"EARTH","BSTAR":"-0.01617400000000","EPOCH":"2022-02-27T22:00:00.999936","OBJECT_ID":"2021-125R","APOAPSIS":"439.797","MEAN_MOTION_DDOT":"0.0000000000000","MEAN_MOTION_DOT":"-0.00661948","ARG_OF_PERICENTER":"52.2951","LAUNCH_DATE":"2021-12-18","INCLINATION":"53.2177","DECAY_DATE":null,"FILE":"3331200","OBJECT_TYPE":"PAYLOAD","PERIAPSIS":"437.827","MEAN_ELEMENT_THEORY":"SGP4","NORAD_CAT_ID":"50171","TLE_LINE2":"2 50171  53.2177  14.6271 0001445  52.2951 257.4052 15.42474048  3681","REF_FRAME":"TEME","RA_OF_ASC_NODE":"14.6271"},{"SITE":"AFWTR","RCS_SIZE":"LARGE","OBJECT_NAME":"STARLINK-3287","MEAN_MOTION":"15.43164763","EPHEMERIS_TYPE":"0","TIME_SYSTEM":"UTC","CLASSIFICATION_TYPE":"U","COUNTRY_CODE":"US","PERIOD":"93.315","CENTER_NAME":"EARTH","ECCENTRICITY":"0.00016960","TLE_LINE1":"1 50172U 21125S   22058.91667824 -.00662151  00000-0 -15805-1 0  9999","MEAN_ANOMALY":"334.6544","SEMIMAJOR_AXIS":"6814.913","GP_ID":"197288006","REV_AT_EPOCH":"368","ELEMENT_SET_NO":"999","ARG_OF_PERICENTER":"34.6664","LAUNCH_DATE":"2021-12-18","MEAN_MOTION_DOT":"-0.00662151","FILE":"3331200","DECAY_DATE":null,"INCLINATION":"53.2177","OBJECT_ID":"2021-125S","EPOCH":"2022-02-27T22:00:00.999936","BSTAR":"-0.01580500000000","MEAN_MOTION_DDOT":"0.0000000000000","APOAPSIS":"437.934","NORAD_CAT_ID":"50172","MEAN_ELEMENT_THEORY":"SGP4","REF_FRAME":"TEME","RA_OF_ASC_NODE":"14.6228","TLE_LINE2":"2 50172  53.2177  14.6228 0001696  34.6664 334.6544 15.43164763  3682","PERIAPSIS":"435.622","OBJECT_TYPE":"PAYLOAD"}];
